NORAD_CAT_ID,OBJECT_NAME,OBJECT_TYPE,EPOCH,MEAN_MOTION,ECCENTRICITY,INCLINATION,RA_OF_ASC_NODE,ARG_OF_PERICENTER,MEAN_ANOMALY,BSTAR,MEAN_MOTION_DOT,MEAN_MOTION_DDOT,TLE_LINE0,TLE_LINE1,TLE_LINE2,SEMIMAJOR_AXIS,PERIOD,APOGEE,PERIGEE,DECAYED
53011.0,STARLINK-4265,PAYLOAD,2022-12-10 11:13:32,15.08827552,0.0001629,53.2181,4.7975,19.0798,341.0255,0.00033894,5.109e-05,0.0,0 STARLINK-4265,1 53011U 22076AB  22344.46773488  .00005109  00000-0  33894-3 0  9994,2 53011  53.2181   4.7975 0001629  19.0798 341.0255 15.08827552 24050,6917.918000000002,95.438,540.91,538.6569999999998,0.0
53011.0,STARLINK-4265,PAYLOAD,2022-12-10 12:48:55,15.08829922,0.0001723,53.2179,4.4997,14.0125,346.0914,0.00043673,6.667e-05,0.0,0 STARLINK-4265,1 53011U 22076AB  22344.53397535  .00006667  00000-0  43673-3 0  9993,2 53011  53.2179   4.4997 0001723  14.0125 346.0914 15.08829922 24535,6917.911,95.438,540.9680000000002,538.5840000000002,0.0
53011.0,STARLINK-4265,PAYLOAD,2022-12-11 07:53:33,15.088347400000002,0.0001972,53.2185,0.9341,21.0671,339.0402,0.00048969,7.513e-05,0.0,0 STARLINK-4265,1 53011U 22076AB  22345.32885974  .00007513  00000-0  48969-3 0  9994,2 53011  53.2185   0.9341 0001972  21.0671 339.0402 15.08834740 24185,6917.896,95.438,541.126,538.3969999999998,0.0
53011.0,STARLINK-4265,PAYLOAD,2022-12-12 01:22:47,15.08849513,0.0001882,53.2183,357.6598,31.3104,328.8,0.00031773,4.774e-05,0.0,0 STARLINK-4265,1 53011U 22076AB  22346.05749496  .00004774  00000-0  31773-3 0  9994,2 53011  53.2183 357.6598 0001882  31.3104 328.8000 15.08849513 24762,6917.851,95.437,541.018,538.414,0.0
53011.0,STARLINK-4265,PAYLOAD,2022-12-12 10:55:06,15.08840781,0.0002071,53.219,355.8779,36.9099,323.2035,0.00011307,1.512e-05,0.0,0 STARLINK-4265,1 53011U 22076AB  22346.45493711  .00001512  00000-0  11307-3 0  9992,2 53011  53.2190 355.8779 0002071  36.9099 323.2035 15.08840781 24828,6917.878000000002,95.438,541.1759999999998,538.31,0.0
53011.0,STARLINK-4265,PAYLOAD,2022-12-13 07:35:07,15.08835605,0.0002117,53.2192,352.0123,39.5834,320.5313,3.1897e-05,2.19e-06,0.0,0 STARLINK-4265,1 53011U 22076AB  22347.31606045  .00000219  00000-0  31897-4 0  9994,2 53011  53.2192 352.0123 0002117  39.5834 320.5313 15.08835605 24951,6917.894,95.438,541.2230000000002,538.294,0.0
53011.0,STARLINK-4265,PAYLOAD,2022-12-13 17:07:26,15.08842231,0.0002143,53.22,350.228,46.0073,314.1096,0.00011023,1.467e-05,0.0,0 STARLINK-4265,1 53011U 22076AB  22347.71349788  .00001467  00000-0  11023-3 0  9990,2 53011  53.2200 350.2280 0002143  46.0073 314.1096 15.08842231 24547,6917.874,95.437,541.221,538.256,0.0
53011.0,STARLINK-4265,PAYLOAD,2022-12-14 02:39:44,15.08842914,0.0002157,53.2199,348.444,44.3809,315.7356,8.785e-05,1.11e-05,0.0,0 STARLINK-4265,1 53011U 22076AB  22348.11093612  .00001110  00000-0  87850-4 0  9994,2 53011  53.2199 348.4440 0002157  44.3809 315.7356 15.08842914 25077,6917.871,95.437,541.229,538.244,0.0
53011.0,STARLINK-4265,PAYLOAD,2022-12-14 10:36:40,15.08842805,0.0002179,53.2197,346.9571,44.9835,315.1333,8.2712e-05,1.028e-05,0.0,0 STARLINK-4265,1 53011U 22076AB  22348.44213641  .00001028  00000-0  82712-4 0  9996,2 53011  53.2197 346.9571 0002179  44.9835 315.1333 15.08842805 24653,6917.871999999999,95.437,541.244,538.229,0.0
53011.0,STARLINK-4265,PAYLOAD,2022-12-14 16:58:13,15.08832936,0.0002039,53.219,345.7672,48.853,311.2638,1.0830999999999997e-05,-1.16e-06,0.0,0 STARLINK-4265,1 53011U 22076AB  22348.70710216 -.00000116  00000-0  10831-4 0  9996,2 53011  53.2190 345.7672 0002039  48.8530 311.2638 15.08832936 24698,6917.901999999999,95.438,541.178,538.356,0.0
53011.0,STARLINK-4265,PAYLOAD,2022-12-15 12:02:50,15.088402300000002,0.0002104,53.2185,342.1980000000001,38.9869,321.1274,8.6171e-05,1.083e-05,0.0,0 STARLINK-4265,1 53011U 22076AB  22349.50197897  .00001083  00000-0  86171-4 0  9992,2 53011  53.2185 342.1980 0002104  38.9869 321.1274 15.08840230 25281,6917.88,95.438,541.2,538.289,0.0
53011.0,STARLINK-4265,PAYLOAD,2022-12-15 16:49:00,15.08846491,0.0002085,53.2184,341.3061,37.371,322.7427,0.00017406,2.484e-05,0.0,0 STARLINK-4265,1 53011U 22076AB  22349.70069566  .00002484  00000-0  17406-3 0  9995,2 53011  53.2184 341.3061 0002085  37.3710 322.7427 15.08846491 24840,6917.861,95.437,541.168,538.283,0.0
53011.0,STARLINK-4265,PAYLOAD,2022-12-16 11:53:37,15.08846862,0.000216,53.2179,337.7379,40.5313,319.584,0.00020285,2.942e-05,0.0,0 STARLINK-4265,1 53011U 22076AB  22350.49557583  .00002942  00000-0  20285-3 0  9992,2 53011  53.2179 337.7379 0002160  40.5313 319.5840 15.08846862 24962,6917.859,95.437,541.219,538.23,0.0
53011.0,STARLINK-4265,PAYLOAD,2022-12-16 16:39:47,15.08840725,0.000224,53.2181,336.8462,40.5265,319.5894,7.252800000000001e-05,8.66e-06,0.0,0 STARLINK-4265,1 53011U 22076AB  22350.69429810  .00000866  00000-0  72528-4 0  9996,2 53011  53.2181 336.8462 0002240  40.5265 319.5894 15.08840725 25460,6917.878000000002,95.438,541.293,538.194,0.0
53011.0,STARLINK-4265,PAYLOAD,2022-12-17 10:09:01,15.08845197,0.0002059,53.2176,333.5757,39.3611,320.753,0.00015322,2.151e-05,0.0,0 STARLINK-4265,1 53011U 22076AB  22351.42293489  .00002151  00000-0  15322-3 0  9996,2 53011  53.2176 333.5757 0002059  39.3611 320.7530 15.08845197 25104,6917.865,95.437,541.154,538.305,0.0
53011.0,STARLINK-4265,PAYLOAD,2022-12-17 16:30:34,15.08837105,0.0002196,53.218,332.3859,40.3621,319.7534,-2.2932e-05,-6.53e-06,0.0,0 STARLINK-4265,1 53011U 22076AB  22351.68789798 -.00000653  00000-0 -22932-4 0  9990,2 53011  53.2180 332.3859 0002196  40.3621 319.7534 15.08837105 25140,6917.889,95.438,541.273,538.235,0.0
53011.0,STARLINK-4265,PAYLOAD,2022-12-18 05:13:39,15.08841373,0.0002151,53.218,330.0063,42.4369,317.6789,0.00010338,1.358e-05,0.0,0 STARLINK-4265,1 53011U 22076AB  22352.21781815  .00001358  00000-0  10338-3 0  9999,2 53011  53.2180 330.0063 0002151  42.4369 317.6789 15.08841373 25696,6917.876,95.437,541.229,538.253,0.0
53011.0,STARLINK-4265,PAYLOAD,2022-12-18 09:59:48,15.08846382,0.0002136,53.2181,329.1146,40.9799,319.1353,0.00022122,3.235e-05,0.0,0 STARLINK-4265,1 53011U 22076AB  22352.41653654  .00003235  00000-0  22122-3 0  9990,2 53011  53.2181 329.1146 0002136  40.9799 319.1353 15.08846382 25252,6917.861,95.437,541.2040000000002,538.248,0.0
53011.0,STARLINK-4265,PAYLOAD,2022-12-19 09:50:36,15.08843058,0.0002184,53.2179,324.655,38.1942,321.9205,0.00014401,2.005e-05,0.0,0 STARLINK-4265,1 53011U 22076AB  22353.41013911  .00002005  00000-0  14401-3 0  9992,2 53011  53.2179 324.6550 0002184  38.1942 321.9205 15.08843058 25872,6917.871,95.437,541.247,538.225,0.0
53011.0,STARLINK-4265,PAYLOAD,2022-12-20 09:41:22,15.08860925,0.0002191,53.2182,320.194,40.9418,319.1739,0.00062498,9.678e-05,0.0,0 STARLINK-4265,1 53011U 22076AB  22354.40373181  .00009678  00000-0  62498-3 0  9992,2 53011  53.2182 320.1940 0002191  40.9418 319.1739 15.08860925 26028,6917.816,95.436,541.197,538.1659999999998,0.0
53011.0,STARLINK-4265,PAYLOAD,2022-12-20 14:27:31,15.08856441,0.0002195,53.218,319.3016,39.8874,320.2279,0.00034441,5.2e-05,0.0,0 STARLINK-4265,1 53011U 22076AB  22354.60245120  .00005200  00000-0  34441-3 0  9999,2 53011  53.2180 319.3016 0002195  39.8874 320.2279 15.08856441 26050,6917.83,95.437,541.214,538.177,0.0
53011.0,STARLINK-4265,PAYLOAD,2022-12-21 04:46:00,15.08827635,0.0002092,53.2178,316.6256,38.269,321.845,-0.00021056,-3.637e-05,0.0,0 STARLINK-4265,1 53011U 22076AB  22355.19862200 -.00003637  00000-0 -21056-3 0  9990,2 53011  53.2178 316.6256 0002092  38.2690 321.8450 15.08827635 26149,6917.918000000002,95.438,541.23,538.336,0.0
53011.0,STARLINK-4265,PAYLOAD,2022-12-21 09:32:10,15.08824048,0.0002182,53.2183,315.7341,41.4169,318.6989,-0.00024757,-4.225e-05,0.0,0 STARLINK-4265,1 53011U 22076AB  22355.39734559 -.00004225  00000-0 -24757-3 0  9992,2 53011  53.2183 315.7341 0002182  41.4169 318.6989 15.08824048 25704,6917.929,95.439,541.304,538.285,0.0
53011.0,STARLINK-4265,PAYLOAD,2022-12-22 03:01:25,15.08838305,0.0002043,53.2181,312.4627,38.8834,321.2305,0.0005202999999999,8.002e-05,0.0,0 STARLINK-4265,1 53011U 22076AB  22356.12598521  .00008002  00000-0  52030-3 0  9991,2 53011  53.2181 312.4627 0002043  38.8834 321.2305 15.08838305 26285,6917.886,95.438,541.164,538.337,0.0
53011.0,STARLINK-4265,PAYLOAD,2022-12-22 07:47:34,15.08845951,0.0002054,53.218,311.5706,42.5793,317.5358,0.0012663,0.00019926,0.0,0 STARLINK-4265,1 53011U 22076AB  22356.32470700  .00019926  00000-0  12663-2 0  9995,2 53011  53.2180 311.5706 0002054  42.5793 317.5358 15.08845951 25842,6917.861999999999,95.437,541.148,538.306,0.0
53011.0,STARLINK-4265,PAYLOAD,2022-12-22 14:09:07,15.08852997,0.0002088,53.218,310.3814,40.1654,319.9492,0.0010185,0.00015964,0.0,0 STARLINK-4265,1 53011U 22076AB  22356.58966538  .00015964  00000-0  10185-2 0  9997,2 53011  53.2180 310.3814 0002088  40.1654 319.9492 15.08852997 25883,6917.840999999999,95.437,541.15,538.261,0.0
53011.0,STARLINK-4265,PAYLOAD,2022-12-23 04:27:35,15.08836603,0.0001885,53.2177,307.7053,35.7745,324.3373,-4.2305e-05,-9.61e-06,0.0,0 STARLINK-4265,1 53011U 22076AB  22357.18582676 -.00000961  00000-0 -42305-4 0  9995,2 53011  53.2177 307.7053 0001885  35.7745 324.3373 15.08836603 26446,6917.891,95.438,541.06,538.452,0.0
53011.0,STARLINK-4265,PAYLOAD,2022-12-23 13:59:54,15.08842202,0.0002076,53.2181,305.9211,39.3268,320.7874,0.00028268,4.214e-05,0.0,0 STARLINK-4265,1 53011U 22076AB  22357.58326860  .00004214  00000-0  28268-3 0  9994,2 53011  53.2181 305.9211 0002076  39.3268 320.7874 15.08842202 26033,6917.874,95.437,541.175,538.303,0.0
53011.0,STARLINK-4265,PAYLOAD,2022-12-24 02:42:59,15.08835466,0.0001893,53.218,303.5423,37.768,322.3445,9.5722e-05,1.235e-05,0.0,0 STARLINK-4265,1 53011U 22076AB  22358.11319216  .00001235  00000-0  95722-4 0  9991,2 53011  53.2180 303.5423 0001893  37.7680 322.3445 15.08835466 26112,6917.894,95.438,541.069,538.45,0.0
